{"type": "FeatureCollection", "features": [ {"type": "Feature", "properties": {"norad_id": 33841, "name": "COSMOS 2251 DEB", "group": "cosmos-2251-debris", "lat": -73.84283639760629, "lon": -158.76580075181437, "alt_km": 772.7102334891306, "timestamp": "2025-12-10T09:57:45.090671+00:00", "meta": {"OBJECT_NAME": "COSMOS 2251 DEB", "OBJECT_ID": "1993-036CJ", "EPOCH": "2025-12-09T19:28:05.588256", "MEAN_MOTION": 14.37854348, "ECCENTRICITY": 0.00204, "INCLINATION": 74.0377, "RA_OF_ASC_NODE": 283.4337, "ARG_OF_PERICENTER": 4.4672, "MEAN_ANOMALY": 23.3953, "EPHEMERIS_TYPE": 0, "CLASSIFICATION_TYPE": "U", "NORAD_CAT_ID": 33841, "ELEMENT_SET_NO": 999, "REV_AT_EPOCH": 88072, "BSTAR": 0.00044408, "MEAN_MOTION_DOT": 1.316e-05, "MEAN_MOTION_DDOT": 0}, "tle": {"line1": "1 33841U 93036CJ  25343.81117579  .00001316  00000+0  44408-3 0  9999", "line2": "2 33841  74.0377 283.4337 0020400   4.4672  23.3953 14.37854348880725"}}, "geometry": {"type": "Point", "coordinates": [-158.76580075181437, -73.84283639760629]}}, {"type": "Feature", "properties": {"norad_id": 33842, "name": "COSMOS 2251 DEB", "group": "cosmos-2251-debris", "lat": 49.89585431246204, "lon": 24.09289408220574, "alt_km": 775.320617861682, "timestamp": "2025-12-10T09:57:45.090681+00:00", "meta": {"OBJECT_NAME": "COSMOS 2251 DEB", "OBJECT_ID": "1993-036CK", "EPOCH": "2025-12-10T02:43:04.342080", "MEAN_MOTION": 14.42688865, "ECCENTRICITY": 0.0047223, "INCLINATION": 74.0331, "RA_OF_ASC_NODE": 224.5268, "ARG_OF_PERICENTER": 332.3721, "MEAN_ANOMALY": 27.4926, "EPHEMERIS_TYPE": 0, "CLASSIFICATION_TYPE": "U", "NORAD_CAT_ID": 33842, "ELEMENT_SET_NO": 999, "REV_AT_EPOCH": 88299, "BSTAR": 0.00044857, "MEAN_MOTION_DOT": 1.486e-05, "MEAN_MOTION_DDOT": 0}, "tle": {"line1": "1 33842U 93036CK  25344.11324470  .00001486  00000+0  44857-3 0  9990", "line2": "2 33842  74.0331 224.5268 0047223 332.3721  27.4926 14.42688865882996"}}, "geometry": {"type": "Point", "coordinates": [24.09289408220574, 49.89585431246204]}}, {"type": "Feature", "properties": {"norad_id": 33844, "name": "COSMOS 2251 DEB", "group": "cosmos-2251-debris", "lat": 44.5243581593904, "lon": -139.2941514683132, "alt_km": 754.9829503277933, "timestamp": "2025-12-10T09:57:45.090692+00:00", "meta": {"OBJECT_NAME": "COSMOS 2251 DEB", "OBJECT_ID": "1993-036CM", "EPOCH": "2025-12-09T15:41:38.190336", "MEAN_MOTION": 14.33706708, "ECCENTRICITY": 0.0047079, "INCLINATION": 74.0672, "RA_OF_ASC_NODE": 58.4122, "ARG_OF_PERICENTER": 81.3539, "MEAN_ANOMALY": 84.1245, "EPHEMERIS_TYPE": 0, "CLASSIFICATION_TYPE": "U", "NORAD_CAT_ID": 33844, "ELEMENT_SET_NO": 999, "REV_AT_EPOCH": 87681, "BSTAR": 0.00064757, "MEAN_MOTION_DOT": 1.795e-05, "MEAN_MOTION_DDOT": 0}, "tle": {"line1": "1 33844U 93036CM  25343.65391424  .00001795  00000+0  64757-3 0  9997", "line2": "2 33844  74.0672  58.4122 0047079  81.3539  84.1245 14.33706708876811"}}, "geometry": {"type": "Point", "coordinates": [-139.2941514683132, 44.5243581593904]}}, {"type": "Feature", "properties": {"norad_id": 33848, "name": "COSMOS 2251 DEB", "group": "cosmos-2251-debris", "lat": -43.46259674425073, "lon": -162.28686739395135, "alt_km": 779.9743532272714, "timestamp": "2025-12-10T09:57:45.090702+00:00", "meta": {"OBJECT_NAME": "COSMOS 2251 DEB", "OBJECT_ID": "1993-036CR", "EPOCH": "2025-12-10T02:31:45.447168", "MEAN_MOTION": 14.44032089, "ECCENTRICITY": 0.0041023, "INCLINATION": 74.0322, "RA_OF_ASC_NODE": 2.5441, "ARG_OF_PERICENTER": 59.2774, "MEAN_ANOMALY": 356.7921, "EPHEMERIS_TYPE": 0, "CLASSIFICATION_TYPE": "U", "NORAD_CAT_ID": 33848, "ELEMENT_SET_NO": 999, "REV_AT_EPOCH": 87793, "BSTAR": 0.0013376, "MEAN_MOTION_DOT": 4.598e-05, "MEAN_MOTION_DDOT": 0}, "tle": {"line1": "1 33848U 93036CR  25344.10538712  .00004598  00000+0  13376-2 0  9999", "line2": "2 33848  74.0322   2.5441 0041023  59.2774 356.7921 14.44032089877938"}}, "geometry": {"type": "Point", "coordinates": [-162.28686739395135, -43.46259674425073]}}, {"type": "Feature", "properties": {"norad_id": 33892, "name": "COSMOS 2251 DEB", "group": "cosmos-2251-debris", "lat": -35.55077928280272, "lon": 94.31079792358055, "alt_km": 901.0947313134056, "timestamp": "2025-12-10T09:57:45.090712+00:00", "meta": {"OBJECT_NAME": "COSMOS 2251 DEB", "OBJECT_ID": "1993-036CV", "EPOCH": "2025-12-09T10:49:32.694240", "MEAN_MOTION": 14.23318421, "ECCENTRICITY": 0.01131155, "INCLINATION": 73.803, "RA_OF_ASC_NODE": 108.057, "ARG_OF_PERICENTER": 139.9101, "MEAN_ANOMALY": 285.3001, "EPHEMERIS_TYPE": 0, "CLASSIFICATION_TYPE": "U", "NORAD_CAT_ID": 33892, "ELEMENT_SET_NO": 999, "REV_AT_EPOCH": 86908, "BSTAR": 0.0014998636, "MEAN_MOTION_DOT": 3.606e-05, "MEAN_MOTION_DDOT": 0}, "tle": {"line1": "1 33892U 93036CV  25343.45107285  .00003606  00000+0  14999-2 0  9993", "line2": "2 33892  73.8030 108.0570 0113115 139.9101 285.3001 14.23318421869084"}}, "geometry": {"type": "Point", "coordinates": [94.31079792358055, -35.55077928280272]}}, {"type": "Feature", "properties": {"norad_id": 33894, "name": "COSMOS 2251 DEB", "group": "cosmos-2251-debris", "lat": 13.201962192393568, "lon": -3.4026394279920216, "alt_km": 1243.093853064107, "timestamp": "2025-12-10T09:57:45.090723+00:00", "meta": {"OBJECT_NAME": "COSMOS 2251 DEB", "OBJECT_ID": "1993-036CX", "EPOCH": "2025-12-08T10:38:58.588224", "MEAN_MOTION": 13.21283258, "ECCENTRICITY": 0.05795731, "INCLINATION": 73.7668, "RA_OF_ASC_NODE": 355.7273, "ARG_OF_PERICENTER": 275.6874, "MEAN_ANOMALY": 77.844, "EPHEMERIS_TYPE": 0, "CLASSIFICATION_TYPE": "U", "NORAD_CAT_ID": 33894, "ELEMENT_SET_NO": 999, "REV_AT_EPOCH": 80651, "BSTAR": 0.0026326972, "MEAN_MOTION_DOT": 2.6e-05, "MEAN_MOTION_DDOT": 0}, "tle": {"line1": "1 33894U 93036CX  25342.44373366  .00002600  00000+0  26327-2 0  9999", "line2": "2 33894  73.7668 355.7273 0579573 275.6874  77.8440 13.21283258806518"}}, "geometry": {"type": "Point", "coordinates": [-3.4026394279920216, 13.201962192393568]}}, {"type": "Feature", "properties": {"norad_id": 33896, "name": "COSMOS 2251 DEB", "group": "cosmos-2251-debris", "lat": 63.96053864521209, "lon": -162.48984752656273, "alt_km": 824.7354272609255, "timestamp": "2025-12-10T09:57:45.090733+00:00", "meta": {"OBJECT_NAME": "COSMOS 2251 DEB", "OBJECT_ID": "1993-036CZ", "EPOCH": "2025-12-09T22:30:24.517728", "MEAN_MOTION": 14.19026335, "ECCENTRICITY": 0.0126311, "INCLINATION": 73.7662, "RA_OF_ASC_NODE": 161.7698, "ARG_OF_PERICENTER": 337.9235, "MEAN_ANOMALY": 172.5826, "EPHEMERIS_TYPE": 0, "CLASSIFICATION_TYPE": "U", "NORAD_CAT_ID": 33896, "ELEMENT_SET_NO": 999, "REV_AT_EPOCH": 86700, "BSTAR": 0.00079753, "MEAN_MOTION_DOT": 1.776e-05, "MEAN_MOTION_DDOT": 0}, "tle": {"line1": "1 33896U 93036CZ  25343.93778377  .00001776  00000+0  79753-3 0  9992", "line2": "2 33896  73.7662 161.7698 0126311 337.9235 172.5826 14.19026335867002"}}, "geometry": {"type": "Point", "coordinates": [-162.48984752656273, 63.96053864521209]}}, {"type": "Feature", "properties": {"norad_id": 33899, "name": "COSMOS 2251 DEB", "group": "cosmos-2251-debris", "lat": 73.35006389097526, "lon": -162.7816068416397, "alt_km": 660.9839065578153, "timestamp": "2025-12-10T09:57:45.090743+00:00", "meta": {"OBJECT_NAME": "COSMOS 2251 DEB", "OBJECT_ID": "1993-036DC", "EPOCH": "2025-12-09T17:46:50.710944", "MEAN_MOTION": 14.61140351, "ECCENTRICITY": 0.0057055, "INCLINATION": 74.054, "RA_OF_ASC_NODE": 91.4532, "ARG_OF_PERICENTER": 155.015, "MEAN_ANOMALY": 355.225, "EPHEMERIS_TYPE": 0, "CLASSIFICATION_TYPE": "U", "NORAD_CAT_ID": 33899, "ELEMENT_SET_NO": 999, "REV_AT_EPOCH": 88795, "BSTAR": 0.0017306, "MEAN_MOTION_DOT": 8.694e-05, "MEAN_MOTION_DDOT": 0}, "tle": {"line1": "1 33899U 93036DC  25343.74086471  .00008694  00000+0  17306-2 0  9992", "line2": "2 33899  74.0540  91.4532 0057055 155.0150 355.2250 14.61140351887952"}}, "geometry": {"type": "Point", "coordinates": [-162.7816068416397, 73.35006389097526]}}, {"type": "Feature", "properties": {"norad_id": 33900, "name": "COSMOS 2251 DEB", "group": "cosmos-2251-debris", "lat": 24.434209724448767, "lon": 176.8113392131835, "alt_km": 664.3486814340013, "timestamp": "2025-12-10T09:57:45.090753+00:00", "meta": {"OBJECT_NAME": "COSMOS 2251 DEB", "OBJECT_ID": "1993-036DD", "EPOCH": "2025-12-10T01:09:42.490080", "MEAN_MOTION": 14.58331361, "ECCENTRICITY": 0.0046991, "INCLINATION": 74.0193, "RA_OF_ASC_NODE": 4.9908, "ARG_OF_PERICENTER": 157.8606, "MEAN_ANOMALY": 232.2098, "EPHEMERIS_TYPE": 0, "CLASSIFICATION_TYPE": "U", "NORAD_CAT_ID": 33900, "ELEMENT_SET_NO": 999, "REV_AT_EPOCH": 88997, "BSTAR": 0.0005369, "MEAN_MOTION_DOT": 2.493e-05, "MEAN_MOTION_DDOT": 0}, "tle": {"line1": "1 33900U 93036DD  25344.04840845  .00002493  00000+0  53690-3 0  9990", "line2": "2 33900  74.0193   4.9908 0046991 157.8606 232.2098 14.58331361889975"}}, "geometry": {"type": "Point", "coordinates": [176.8113392131835, 24.434209724448767]}}, {"type": "Feature", "properties": {"norad_id": 33901, "name": "COSMOS 2251 DEB", "group": "cosmos-2251-debris", "lat": 14.136022329977699, "lon": 58.42179903203224, "alt_km": 542.4764109829475, "timestamp": "2025-12-10T09:57:45.090763+00:00", "meta": {"OBJECT_NAME": "COSMOS 2251 DEB", "OBJECT_ID": "1993-036DE", "EPOCH": "2025-12-09T21:13:20.432928", "MEAN_MOTION": 15.15400196, "ECCENTRICITY": 0.0032748, "INCLINATION": 73.773, "RA_OF_ASC_NODE": 55.3376, "ARG_OF_PERICENTER": 187.5193, "MEAN_ANOMALY": 172.5514, "EPHEMERIS_TYPE": 0, "CLASSIFICATION_TYPE": "U", "NORAD_CAT_ID": 33901, "ELEMENT_SET_NO": 999, "REV_AT_EPOCH": 89470, "BSTAR": 0.0045832, "MEAN_MOTION_DOT": 0.00088769, "MEAN_MOTION_DDOT": 0}, "tle": {"line1": "1 33901U 93036DE  25343.88426427  .00088769  00000+0  45832-2 0  9996", "line2": "2 33901  73.7730  55.3376 0032748 187.5193 172.5514 15.15400196894707"}}, "geometry": {"type": "Point", "coordinates": [58.42179903203224, 14.136022329977699]}}]}